#aV2015  8  6  0  0  0.00000000     288 DD+AD WGS84 FIT  NGA
## 1856 345600.00000000   300.00000000 57240 0.0000000000000
+   30     1  2  3  4  5  6  7  9 11 12 13 14 15 16 17 18 19
+         20 21 22 23 24 25 26 27 28 29 30 31 32  0  0  0  0
+          0  0  0  0  0  0  0  0  0  0  0  0  0  0  0  0  0
+          0  0  0  0  0  0  0  0  0  0  0  0  0  0  0  0  0
+          0  0  0  0  0  0  0  0  0  0  0  0  0  0  0  0  0
++         2  2  2  2  2  2  2  2  2  2  2  2  2  2  2  2  2
++         2  2  2  2  2  2  2  2  2  2  2  2  2  0  0  0  0
++         0  0  0  0  0  0  0  0  0  0  0  0  0  0  0  0  0
++         0  0  0  0  0  0  0  0  0  0  0  0  0  0  0  0  0
++         0  0  0  0  0  0  0  0  0  0  0  0  0  0  0  0  0
%c cc cc ccc ccc cccc cccc cccc cccc ccccc ccccc ccccc ccccc
%c cc cc ccc ccc cccc cccc cccc cccc ccccc ccccc ccccc ccccc
%f  0.0000000  0.000000000  0.00000000000  0.000000000000000
%f  0.0000000  0.000000000  0.00000000000  0.000000000000000
%i    0    0    0    0      0      0      0      0         0
%i    0    0    0    0      0      0      0      0         0
/*      NGA, ST. LOUIS,MO.                                  
/*   EPHEMERIS COMPUTED FROM  1 DAYS OF DATA                
/*   EPOCHA SMOOTHER                                       
/* CCCCCCCCCCCCCCCCCCCCCCCCCCCCCCCCCCCCCCCCCCCCCCCCCCCCCCCCC
*  2015  8  6  7 50  0.00000000
P  1 -19226.531285  -7816.702685  16624.860336     -1.717078                    
V  1 -10435.890812 -18465.532151 -20478.251476      0.006319                    
P  2  14062.456584  22681.264789   2845.541780    582.520794                    
V  2  -4260.418371   -751.333609  30769.513934      0.020884                    
P  3 -17095.988484   3020.450364  20122.170617     14.012936                    
V  3  10057.508919 -23477.628108  12047.988316      0.027415                    
P  4 -19309.376402 -15912.762516   8954.151390     -7.649946                    
V  4  -4375.909120 -11357.144451 -28280.425022     -0.035101                    
P  5   6736.886883  17503.988019 -18784.741472   -209.668582                    
V  5 -11674.639044  20875.266010  15495.389232      0.042403                    
P  6   4256.632738  22577.152216  13333.459740     32.013646                    
V  6 -11379.730004 -12717.637334  25155.277589      0.078962                    
P  7 -13260.351001   7032.866359 -21809.256918    478.475563                    
V  7 -15236.886550 -23402.772458   1330.655946      0.020053                    
P  9 -23757.718894   8103.204997  -8718.707451    -10.354136                    
V  9 -11247.233832  -1782.067290  28984.086506     -0.010405                    
P 11 -23548.351197  -8288.923554   8678.957250   -596.081053                    
V 11  -7034.644148 -10537.218748 -27328.713353     -0.024270                    
P 12  15618.297715    536.278001  21331.462177    316.427657                    
V 12 -12413.794084  24321.797092   8641.086726      0.033750                    
P 13  15231.107811  12642.378507 -17786.359068   -138.605085                    
V 13 -22368.490474    675.561228 -18930.022629     -0.033037                    
P 14   9779.997994 -14142.855095  20450.939060     43.735321                    
V 14  25437.889817   1001.830684 -11769.625839     -0.026453                    
P 15  24147.600097   4766.014998 -10481.503578   -264.537826                    
V 15 -12641.976847   4598.716873 -26950.365349     -0.020834                    
P 16  -4668.219365 -17539.214521 -19332.936564   -100.518522                    
V 16  12946.354161 -20747.623250  16118.845587      0.041984                    
P 17  -7975.250502  14549.350137  20989.364145   -183.053373                    
V 17 -26000.093456      9.822255 -10234.535478     -0.014545                    
P 18  15399.026437 -19778.487132  -7820.997963    423.224430                    
V 18   -768.606062  11441.197668 -28895.673817      0.031079                    
P 19 -22865.483889  -8247.394050 -11450.868412   -517.682670                    
V 19  14070.416331  -1510.208242 -27059.908089     -0.008972                    
P 20  16591.516771    674.772590 -20889.414709    344.630532                    
V 20  -8881.834119  24780.892038  -6213.007507      0.031831                    
P 21  11406.494756 -10513.718069 -20839.923146   -469.758182                    
V 21  16759.824810  22739.734053  -2560.139672     -0.030547                    
P 22   8164.201239 -24927.086732   3758.853716    378.540740                    
V 22   5589.610166  -2452.448169 -30508.888626      0.039711                    
P 23 -26603.136050   -482.517410   3380.603459   -125.497238                    
V 23   3832.137727  -3094.526345  30790.939609     -0.023063                    
P 24  19849.600808  10075.641362  14564.935614     -2.559083                    
V 24   8940.653628  16360.186867 -23296.547118     -0.006736                    
P 25  17437.723294 -13049.086465  14984.672498    -21.959491                    
V 25  -6700.241521  18122.627259  23576.325438     -0.047101                    
P 26   2404.069209 -23822.493167 -11498.335701    -21.359332                    
V 26   8430.678476 -12150.786999  26958.481797     -0.075276                    
P 27 -13341.367229 -12347.943531 -19432.724041      9.792687                    
V 27  24390.162668  -3087.116661 -14684.969236      0.028430                    
P 28 -12412.409396  23418.303614   1247.607966    458.660657                    
V 28  -2124.511976   -260.039876 -32379.869524      0.024967                    
P 29  25078.253544  -5249.860618  -6899.096040    626.557608                    
V 29   8826.474321   2121.625411  30448.296094      0.020789                    
P 30  -5520.718092  17482.916248 -19195.557268      0.698058                    
V 30 -13512.800115 -20372.506571 -14750.511214      0.073021                    
P 31  -4684.991027 -22936.303547  12345.167388    307.357452                    
V 31  10204.525903  11965.882967  26704.613499     -0.012613                    
P 32 -10869.638378 -11720.189557  21240.512069    -80.063966                    
V 32  13884.734453 -23193.170118  -5147.409754      0.104109                    
EOF
